[{"OBJECT_NAME":"OBJECT C","OBJECT_ID":"2023-003C","EPOCH":"2026-03-09T22:53:37.568256","MEAN_MOTION":15.5121963,"ECCENTRICITY":0.00046458,"INCLINATION":97.1598,"RA_OF_ASC_NODE":145.7069,"ARG_OF_PERICENTER":126.2552,"MEAN_ANOMALY":233.9131,"EPHEMERIS_TYPE":0,"CLASSIFICATION_TYPE":"U","NORAD_CAT_ID":55135,"ELEMENT_SET_NO":999,"REV_AT_EPOCH":17687,"BSTAR":0.00045849142,"MEAN_MOTION_DOT":0.00026795,"MEAN_MOTION_DDOT":0},{"OBJECT_NAME":"CZ-11 DEB","OBJECT_ID":"2025-255B","EPOCH":"2026-03-09T22:54:27.037440","MEAN_MOTION":15.52392921,"ECCENTRICITY":0.00133106,"INCLINATION":52.9927,"RA_OF_ASC_NODE":120.0728,"ARG_OF_PERICENTER":327.0296,"MEAN_ANOMALY":32.9881,"EPHEMERIS_TYPE":0,"CLASSIFICATION_TYPE":"U","NORAD_CAT_ID":66377,"ELEMENT_SET_NO":999,"REV_AT_EPOCH":1872,"BSTAR":0.00089565046,"MEAN_MOTION_DOT":0.00055721,"MEAN_MOTION_DDOT":0}]
